OBJECT_NAME,OBJECT_ID,EPOCH,MEAN_MOTION,ECCENTRICITY,INCLINATION,RA_OF_ASC_NODE,ARG_OF_PERICENTER,MEAN_ANOMALY,EPHEMERIS_TYPE,CLASSIFICATION_TYPE,NORAD_CAT_ID,ELEMENT_SET_NO,REV_AT_EPOCH,BSTAR,MEAN_MOTION_DOT,MEAN_MOTION_DDOT
HAWK-10A,2024-149CA,2026-06-25T04:38:09.937248,14.96535219,.00044263,97.6892,251.9672,57.8761,302.2890,0,U,60540,999,10118,.95692564E-4,.1031E-4,0
UMBRA-09,2024-149CB,2026-06-25T05:46:19.653600,15.18266798,.00010946,97.6979,263.5844,247.6311,112.4807,0,U,60541,999,10194,.10587205E-2,.21669E-3,0
QPS-SAR-8 (AMATERU-IV),2024-149CC,2026-06-25T05:49:59.741184,15.04200542,.00042358,97.6655,255.3248,90.4256,269.7456,0,U,60542,999,10148,.48162198E-3,.6632E-4,0
ARCTIC WEATHER SATELLITE,2024-149CD,2026-06-25T03:30:42.054048,14.89793751,.00036728,97.6799,246.3845,88.9769,271.1869,0,U,60543,999,10048,.9388732E-4,.847E-5,0
CAPELLA-15 (ACADIA-5),2024-149CE,2026-06-24T03:52:23.378016,14.92400032,.00048513,97.6776,247.8919,59.7072,300.4627,0,U,60544,999,10089,.39255481E-3,.3965E-4,0
HAWK-10B,2024-149CF,2026-06-25T04:37:57.499968,14.96534084,.00065244,97.6811,251.3142,71.2407,288.9522,0,U,60545,999,10118,.99780972E-4,.1077E-4,0
ICEYE-X39,2024-149CG,2026-06-25T03:34:44.536512,14.99938293,.00061496,97.6761,253.0642,98.3555,261.8366,0,U,60546,999,10131,.28447337E-3,.3474E-4,0
UMBRA-10,2024-149CH,2026-06-25T05:45:41.271264,15.18261629,.00003731,97.6981,263.6124,140.0991,220.0270,0,U,60547,999,10195,.95654278E-3,.19562E-3,0
ICEYE-X33,2024-149CJ,2026-06-25T04:03:51.142752,15.00928062,.00019867,97.7305,255.2669,81.1800,278.9649,0,U,60548,999,10140,.38088973E-3,.4793E-4,0
ICEYE-X40,2024-149CK,2026-06-25T04:26:14.152128,14.97965060,.00059476,97.6815,252.5527,58.5911,301.5892,0,U,60549,999,10127,.89038299E-4,.992E-5,0
SATELIOT_1,2024-149CL,2026-06-25T04:12:32.120928,14.98102930,.00081123,97.6760,251.9411,56.3676,303.8319,0,U,60550,999,10126,.15724239E-3,.1804E-4,0
BRO-14,2024-149CM,2026-06-25T03:41:31.902144,14.96193544,.0008158,97.6872,251.7883,76.4115,283.8015,0,U,60551,999,10118,.14678538E-3,.1598E-4,0
SATELIOT_3,2024-149CN,2026-06-25T05:13:58.968768,14.98082582,.00060959,97.6815,252.7806,68.6858,291.5015,0,U,60552,999,10128,.1963296E-3,.2265E-4,0
BRO-15,2024-149CP,2026-06-25T03:16:21.810720,14.96174008,.00091359,97.6800,251.3649,66.4680,293.7501,0,U,60553,999,10119,.1889658E-3,.2073E-4,0
UM5-RIBAT,2024-149CQ,2026-06-25T03:18:44.480448,15.01114474,.00029353,97.6628,253.8311,49.0249,311.1229,0,U,60554,999,10138,.25155171E-3,.3161E-4,0
UM5-EOSAT,2024-149CR,2026-06-25T04:02:45.569472,15.01590561,.00090579,97.6737,254.8114,90.9961,269.2301,0,U,60555,999,10141,.34315498E-3,.4393E-4,0
LASARSAT,2024-247Q,2026-06-25T07:23:59.052768,15.46808712,.00072601,44.9730,216.5647,20.4050,339.7129,0,U,62391,999,8457,.71236207E-3,.36383E-3,0
CROCUBE,2024-247T,2026-06-24T09:26:02.551776,15.48681185,.00072263,44.9701,218.9251,18.8099,341.3058,0,U,62394,999,8446,.56516968E-3,.30725E-3,0
TEVEL2-4,2025-052D,2026-06-25T04:50:37.476960,15.34868529,.00049239,97.3900,72.6073,88.3722,271.8086,0,U,63213,999,7134,.6683709E-3,.22567E-3,0
TEVEL2-5,2025-052E,2026-06-24T10:34:45.401664,15.34655456,.00048908,97.3897,71.7905,91.0395,269.1409,0,U,63214,999,7122,.49860982E-3,.16688E-3,0
TEVEL2-6,2025-052F,2026-06-24T10:52:45.082848,15.34620549,.0004713,97.3903,71.7876,91.5170,268.6613,0,U,63215,999,7122,.50673189E-3,.16943E-3,0
TEVEL2-1,2025-052H,2026-06-23T23:06:46.983456,15.34061026,.0004942,97.3870,70.9129,100.4498,259.7302,0,U,63217,999,7113,.46841874E-3,.15378E-3,0
TEVEL2-3,2025-052J,2026-06-25T04:43:16.419648,15.34170059,.00048548,97.3879,72.1699,98.3843,261.7950,0,U,63218,999,7132,.66468363E-3,.21948E-3,0
TEVEL2-2,2025-052K,2026-06-23T23:07:10.660512,15.34070494,.00049675,97.3875,70.9156,100.9332,259.2469,0,U,63219,999,7113,.46675971E-3,.15328E-3,0
TEVEL2-9,2025-052AD,2026-06-25T04:34:15.650688,15.32121660,.00082816,97.3938,71.5013,109.1603,251.0536,0,U,63237,999,7125,.65108019E-3,.20165E-3,0
TEVEL2-7,2025-052AE,2026-06-25T05:35:24.161856,15.31822175,.00083759,97.3939,71.4562,109.3525,250.8623,0,U,63238,999,7125,.62803458E-3,.19266E-3,0
TEVEL2-8,2025-052AF,2026-06-25T04:13:19.945056,15.31804853,.00084117,97.3940,71.3762,110.1774,250.0373,0,U,63239,999,7124,.64240417E-3,.19699E-3,0
FORESAIL-1 PRIME,2025-276DS,2026-06-25T03:59:44.374848,15.18766994,.00039274,97.4202,249.2913,87.1697,272.9986,0,U,66778,999,3161,.25842125E-3,.5305E-4,0
