[{"id":"60540","name":"HAWK-10A","tle1":"1 60540U 24149CA  26176.19317057  .00001031  00000+0  95693-4 0  9990","tle2":"2 60540  97.6892 251.9672 0004426  57.8761 302.2890 14.96535219101180"},{"id":"60541","name":"UMBRA-09","tle1":"1 60541U 24149CB  26176.24050525  .00021669  00000+0  10587-2 0  9997","tle2":"2 60541  97.6979 263.5844 0001094 247.6311 112.4807 15.18266798101946"},{"id":"60542","name":"QPS-SAR-8 (AMATERU-IV)","tle1":"1 60542U 24149CC  26176.24305256  .00006632  00000+0  48162-3 0  9996","tle2":"2 60542  97.6655 255.3248 0004235  90.4256 269.7456 15.04200542101482"},{"id":"60543","name":"ARCTIC WEATHER SATELLITE","tle1":"1 60543U 24149CD  26176.14632007  .00000847  00000+0  93887-4 0  9990","tle2":"2 60543  97.6799 246.3845 0003672  88.9769 271.1869 14.89793751100485"},{"id":"60544","name":"CAPELLA-15 (ACADIA-5)","tle1":"1 60544U 24149CE  26175.16138169  .00003965  00000+0  39255-3 0  9994","tle2":"2 60544  97.6776 247.8919 0004851  59.7072 300.4627 14.92400032100896"},{"id":"60545","name":"HAWK-10B","tle1":"1 60545U 24149CF  26176.19302662  .00001077  00000+0  99781-4 0  9993","tle2":"2 60545  97.6811 251.3142 0006524  71.2407 288.9522 14.96534084101181"},{"id":"60546","name":"ICEYE-X39","tle1":"1 60546U 24149CG  26176.14912658  .00003474  00000+0  28447-3 0  9994","tle2":"2 60546  97.6761 253.0642 0006149  98.3555 261.8366 14.99938293101311"},{"id":"60547","name":"UMBRA-10","tle1":"1 60547U 24149CH  26176.24006101  .00019562  00000+0  95654-3 0  9992","tle2":"2 60547  97.6981 263.6124 0000373 140.0991 220.0270 15.18261629101955"},{"id":"60548","name":"ICEYE-X33","tle1":"1 60548U 24149CJ  26176.16934193  .00004793  00000+0  38089-3 0  9994","tle2":"2 60548  97.7305 255.2669 0001986  81.1800 278.9649 15.00928062101407"},{"id":"60549","name":"ICEYE-X40","tle1":"1 60549U 24149CK  26176.18488602  .00000992  00000+0  89038-4 0  9994","tle2":"2 60549  97.6815 252.5527 0005947  58.5911 301.5892 14.97965060101270"},{"id":"60550","name":"SATELIOT_1","tle1":"1 60550U 24149CL  26176.17537177  .00001804  00000+0  15724-3 0  9990","tle2":"2 60550  97.6760 251.9411 0008112  56.3676 303.8319 14.98102930101265"},{"id":"60551","name":"BRO-14","tle1":"1 60551U 24149CM  26176.15384146  .00001598  00000+0  14679-3 0  9993","tle2":"2 60551  97.6872 251.7883 0008158  76.4115 283.8015 14.96193544101182"},{"id":"60552","name":"SATELIOT_3","tle1":"1 60552U 24149CN  26176.21804362  .00002265  00000+0  19633-3 0  9995","tle2":"2 60552  97.6815 252.7806 0006095  68.6858 291.5015 14.98082582101289"},{"id":"60553","name":"BRO-15","tle1":"1 60553U 24149CP  26176.13636355  .00002073  00000+0  18897-3 0  9990","tle2":"2 60553  97.6800 251.3649 0009135  66.4680 293.7501 14.96174008101198"},{"id":"60554","name":"UM5-RIBAT","tle1":"1 60554U 24149CQ  26176.13801482  .00003161  00000+0  25155-3 0  9990","tle2":"2 60554  97.6628 253.8311 0002935  49.0249 311.1229 15.01114474101380"},{"id":"60555","name":"UM5-EOSAT","tle1":"1 60555U 24149CR  26176.16858298  .00004393  00000+0  34315-3 0  9997","tle2":"2 60555  97.6737 254.8114 0009057  90.9961 269.2301 15.01590561101415"},{"id":"62391","name":"LASARSAT","tle1":"1 62391U 24247Q   26176.30832237  .00036383  00000+0  71236-3 0  9994","tle2":"2 62391  44.9730 216.5647 0007260  20.4050 339.7129 15.46808712 84577"},{"id":"62394","name":"CROCUBE","tle1":"1 62394U 24247T   26175.39308509  .00030725  00000+0  56517-3 0  9994","tle2":"2 62394  44.9701 218.9251 0007226  18.8099 341.3058 15.48681185 84464"},{"id":"63213","name":"TEVEL2-4","tle1":"1 63213U 25052D   26176.20182265  .00022567  00000+0  66837-3 0  9991","tle2":"2 63213  97.3900  72.6073 0004923  88.3722 271.8086 15.34868529 71346"},{"id":"63214","name":"TEVEL2-5","tle1":"1 63214U 25052E   26175.44080326  .00016688  00000+0  49861-3 0  9997","tle2":"2 63214  97.3897  71.7905 0004890  91.0395 269.1409 15.34655456 71225"},{"id":"63215","name":"TEVEL2-6","tle1":"1 63215U 25052F   26175.45329957  .00016943  00000+0  50673-3 0  9992","tle2":"2 63215  97.3903  71.7876 0004713  91.5170 268.6613 15.34620549 71227"},{"id":"63217","name":"TEVEL2-1","tle1":"1 63217U 25052H   26174.96304379  .00015378  00000+0  46842-3 0  9994","tle2":"2 63217  97.3870  70.9129 0004942 100.4498 259.7302 15.34061026 71136"},{"id":"63218","name":"TEVEL2-3","tle1":"1 63218U 25052J   26176.19671782  .00021948  00000+0  66468-3 0  9993","tle2":"2 63218  97.3879  72.1699 0004854  98.3843 261.7950 15.34170059 71323"},{"id":"63219","name":"TEVEL2-2","tle1":"1 63219U 25052K   26174.96331783  .00015328  00000+0  46676-3 0  9995","tle2":"2 63219  97.3875  70.9156 0004967 100.9332 259.2469 15.34070494 71130"},{"id":"63237","name":"TEVEL2-9","tle1":"1 63237U 25052AD  26176.19045892  .00020165  00000+0  65108-3 0  9991","tle2":"2 63237  97.3938  71.5013 0008281 109.1603 251.0536 15.32121660 71252"},{"id":"63238","name":"TEVEL2-7","tle1":"1 63238U 25052AE  26176.23291854  .00019266  00000+0  62803-3 0  9997","tle2":"2 63238  97.3939  71.4562 0008375 109.3525 250.8623 15.31822175 71253"},{"id":"63239","name":"TEVEL2-8","tle1":"1 63239U 25052AF  26176.17592529  .00019699  00000+0  64240-3 0  9991","tle2":"2 63239  97.3940  71.3762 0008411 110.1774 250.0373 15.31804853 71240"},{"id":"66778","name":"FORESAIL-1 PRIME","tle1":"1 66778U 25276DS  26176.16648582  .00005305  00000+0  25842-3 0  9994","tle2":"2 66778  97.4202 249.2913 0003927  87.1697 272.9986 15.18766994 31619"}]